H-2A R/B                
1 28932U 06002B   26067.42141550  .00016785  00000+0  83775-3 0  9994
2 28932  98.2409 214.3354 0051984 245.4365 114.1443 15.16390570 94240
RESURS-DK 1             
1 29228U 06021A   26067.54360892  .00004568  00000+0  26607-3 0  9996
2 29228  69.9314 239.9875 0002016 163.0570 197.0664 15.12735068 87355
CZ-4B R/B               
1 29507U 06046C   26067.09199634  .00006701  00000+0  33939-3 0  9994
2 29507  97.5591 112.0047 0031661 273.1606  86.6004 15.16885269 59805
CZ-2C R/B               
1 31114U 07010B   26067.31688769  .00000189  00000+0  10608-3 0  9992
2 31114  98.3979 180.6645 0057939 298.6677  60.8682 14.20245714979527
COSMO-SKYMED 1          
1 31598U 07023A   26067.52781052  .00005660  00000+0  50301-3 0  9997
2 31598  97.8868 258.5502 0001136 101.3455 258.7894 14.96525504 14730
COSMOS 2428             
1 31792U 07029A   26067.54359064  .00000073  00000+0  64963-4 0  9998
2 31792  70.9431 205.7484 0009059 277.8501  82.1591 14.12945895963935
SL-16 R/B               
1 31793U 07029B   26067.56411669  .00000007  00000+0  28204-4 0  9996
2 31793  70.9759 174.7506 0002315 276.3599  95.0936 14.14833249965218
KORONAS-FOTON           
1 33504U 09003A   26067.53237725  .00016711  00000+0  37360-3 0  9999
2 33504  82.4274 277.0813 0011247 153.2660 206.9170 15.43297157945568
CZ-2C R/B               
1 37731U 11030B   26067.47315147  .00002606  00000+0  33376-3 0  9997
2 37731  97.8549  24.7607 0052521 356.0450 116.4277 14.81218145789916
H-2A R/B                
1 38341U 12025E   26067.45706116  .00006616  00000+0  59743-3 0  9999
2 38341  98.4741  34.4046 0043411 318.6146  41.1786 14.95158696748030
SHIJIAN-16 (SJ-16)      
1 39358U 13057A   26067.55641497  .00003284  00000+0  32321-3 0  9996
2 39358  74.9735 187.2327 0015463 115.7618 244.5168 14.92339983671334
SL-4 R/B                
1 39679U 14021B   26067.46024517  .00020338  00000+0  44532-3 0  9998
2 39679  51.6077 343.2763 0097684  98.5370 262.6698 15.39134310656080
